GLOBALSTAR M063         
1 26081U 00008A   25350.35428902 -.00000136  00000+0 -77882-3 0  9999
2 26081  51.9983 351.8055 0004582 305.3007 163.3788 11.86178381179195
GLOBALSTAR M062         
1 26082U 00008B   25350.20603571 -.00000117  00000+0 -13359-3 0  9999
2 26082  51.9861 280.5144 0007175 134.4962  13.3633 12.43478817519260
GLOBALSTAR M060         
1 26083U 00008C   25350.03755524 -.00000085  00000+0  64065-4 0  9991
2 26083  52.0028 266.7474 0003490 119.7238 253.3548 12.17671003174528
GLOBALSTAR M064         
1 26084U 00008D   25350.21859247 -.00000102  00000+0 -26634-3 0  9999
2 26084  52.0034  88.8441 0001872  75.0762 285.0278 11.88539347188743
GLOBALSTAR M065         
1 31571U 07020A   25350.31077653 -.00000108  00000+0 -24159-4 0  9998
2 31571  51.9915  31.9352 0009661 353.7965  86.3410 12.62015600856400
GLOBALSTAR M069         
1 31573U 07020C   25350.35813953 -.00000067  00000+0  23293-3 0  9995
2 31573  52.0048  49.6015 0002356 132.5272 307.6261 12.23464909856423
GLOBALSTAR M072         
1 31574U 07020D   25350.04590109 -.00000053  00000+0  42447-3 0  9994
2 31574  51.9912 227.8190 0001256   9.3817 131.6986 11.91654379853141
GLOBALSTAR M071         
1 31576U 07020F   25350.17742646 -.00000157  00000+0 -64733-3 0  9993
2 31576  52.0068  80.8613 0001636 120.9665 247.9767 12.18262738517124
